{"type": "FeatureCollection", "features": [{"type": "Feature", "properties": {"norad_id": 28890, "name": "BEIJING 1", "group": "dmc", "lat": -29.17232215134796, "lon": 111.04319969739255, "alt_km": 698.4532923561464, "timestamp": "2025-12-04T21:36:15.541092+00:00", "meta": {"OBJECT_NAME": "BEIJING 1", "OBJECT_ID": "2005-043A", "EPOCH": "2025-12-04T15:10:30.349344", "MEAN_MOTION": 14.63354281, "ECCENTRICITY": 0.00149153, "INCLINATION": 98.265, "RA_OF_ASC_NODE": 106.1204, "ARG_OF_PERICENTER": 165.9636, "MEAN_ANOMALY": 194.1984, "EPHEMERIS_TYPE": 0, "CLASSIFICATION_TYPE": "U", "NORAD_CAT_ID": 28890, "ELEMENT_SET_NO": 999, "REV_AT_EPOCH": 7219, "BSTAR": 0.00016816058, "MEAN_MOTION_DOT": 8.21e-06, "MEAN_MOTION_DDOT": 0}, "tle": {"line1": "1 28890U 05043A   25338.63229571  .00000821  00000+0  16816-3 0  9990", "line2": "2 28890  98.2650 106.1204 0014915 165.9636 194.1984 14.63354281 72191"}}, "geometry": {"type": "Point", "coordinates": [111.04319969739255, -29.17232215134796]}}, {"type": "Feature", "properties": {"norad_id": 33320, "name": "HUANJING 1A (HJ-1A)", "group": "dmc", "lat": 25.147270545828075, "lon": 151.14551803845143, "alt_km": 619.4382182393829, "timestamp": "2025-12-04T21:36:15.541117+00:00", "meta": {"OBJECT_NAME": "HUANJING 1A (HJ-1A)", "OBJECT_ID": "2008-041A", "EPOCH": "2025-12-04T16:03:18.589824", "MEAN_MOTION": 14.83354487, "ECCENTRICITY": 0.00206076, "INCLINATION": 97.653, "RA_OF_ASC_NODE": 327.305, "ARG_OF_PERICENTER": 59.5737, "MEAN_ANOMALY": 300.7511, "EPHEMERIS_TYPE": 0, "CLASSIFICATION_TYPE": "U", "NORAD_CAT_ID": 33320, "ELEMENT_SET_NO": 999, "REV_AT_EPOCH": 92956, "BSTAR": 0.00042204392, "MEAN_MOTION_DOT": 3.421e-05, "MEAN_MOTION_DDOT": 0}, "tle": {"line1": "1 33320U 08041A   25338.66896516  .00003421  00000+0  42204-3 0  9996", "line2": "2 33320  97.6530 327.3050 0020607  59.5737 300.7511 14.83354487929569"}}, "geometry": {"type": "Point", "coordinates": [151.14551803845143, 25.147270545828075]}}, {"type": "Feature", "properties": {"norad_id": 33321, "name": "HUANJING 1B (HJ-1B)", "group": "dmc", "lat": 30.62978488107644, "lon": -33.3139260431888, "alt_km": 609.4912708077327, "timestamp": "2025-12-04T21:36:15.541132+00:00", "meta": {"OBJECT_NAME": "HUANJING 1B (HJ-1B)", "OBJECT_ID": "2008-041B", "EPOCH": "2025-12-04T14:59:13.465824", "MEAN_MOTION": 14.82788477, "ECCENTRICITY": 0.0038226, "INCLINATION": 97.6391, "RA_OF_ASC_NODE": 330.9806, "ARG_OF_PERICENTER": 101.4694, "MEAN_ANOMALY": 259.0817, "EPHEMERIS_TYPE": 0, "CLASSIFICATION_TYPE": "U", "NORAD_CAT_ID": 33321, "ELEMENT_SET_NO": 999, "REV_AT_EPOCH": 92957, "BSTAR": 0.0003179133, "MEAN_MOTION_DOT": 2.552e-05, "MEAN_MOTION_DDOT": 0}, "tle": {"line1": "1 33321U 08041B   25338.62446141  .00002552  00000+0  31791-3 0  9991", "line2": "2 33321  97.6391 330.9806 0038226 101.4694 259.0817 14.82788477929574"}}, "geometry": {"type": "Point", "coordinates": [-33.3139260431888, 30.62978488107644]}}, {"type": "Feature", "properties": {"norad_id": 33446, "name": "YAOGAN-4", "group": "dmc", "lat": -52.56909634679421, "lon": -80.44796185108541, "alt_km": 620.6110669987202, "timestamp": "2025-12-04T21:36:15.541144+00:00", "meta": {"OBJECT_NAME": "YAOGAN-4", "OBJECT_ID": "2008-061A", "EPOCH": "2025-12-04T08:53:09.383136", "MEAN_MOTION": 14.82641717, "ECCENTRICITY": 0.0014315, "INCLINATION": 97.9171, "RA_OF_ASC_NODE": 268.5523, "ARG_OF_PERICENTER": 351.2867, "MEAN_ANOMALY": 8.8096, "EPHEMERIS_TYPE": 0, "CLASSIFICATION_TYPE": "U", "NORAD_CAT_ID": 33446, "ELEMENT_SET_NO": 999, "REV_AT_EPOCH": 91679, "BSTAR": 0.00043299935, "MEAN_MOTION_DOT": 3.441e-05, "MEAN_MOTION_DDOT": 0}, "tle": {"line1": "1 33446U 08061A   25338.37024749  .00003441  00000+0  43300-3 0  9996", "line2": "2 33446  97.9171 268.5523 0014315 351.2867   8.8096 14.82641717916797"}}, "geometry": {"type": "Point", "coordinates": [-80.44796185108541, -52.56909634679421]}}, {"type": "Feature", "properties": {"norad_id": 35681, "name": "DEIMOS-1", "group": "dmc", "lat": -64.52686837460297, "lon": 156.4002033244941, "alt_km": 654.3556003123558, "timestamp": "2025-12-04T21:36:15.541155+00:00", "meta": {"OBJECT_NAME": "DEIMOS-1", "OBJECT_ID": "2009-041A", "EPOCH": "2025-12-04T13:45:38.555424", "MEAN_MOTION": 14.74933704, "ECCENTRICITY": 0.00026923, "INCLINATION": 97.7146, "RA_OF_ASC_NODE": 139.5573, "ARG_OF_PERICENTER": 94.9285, "MEAN_ANOMALY": 265.2233, "EPHEMERIS_TYPE": 0, "CLASSIFICATION_TYPE": "U", "NORAD_CAT_ID": 35681, "ELEMENT_SET_NO": 999, "REV_AT_EPOCH": 87819, "BSTAR": 0.0002137069, "MEAN_MOTION_DOT": 1.388e-05, "MEAN_MOTION_DDOT": 0}, "tle": {"line1": "1 35681U 09041A   25338.57336291  .00001388  00000+0  21371-3 0  9990", "line2": "2 35681  97.7146 139.5573 0002692  94.9285 265.2233 14.74933704878196"}}, "geometry": {"type": "Point", "coordinates": [156.4002033244941, -64.52686837460297]}}, {"type": "Feature", "properties": {"norad_id": 35683, "name": "UK-DMC 2", "group": "dmc", "lat": -68.01669609432993, "lon": 134.02417538912607, "alt_km": 651.4357105486915, "timestamp": "2025-12-04T21:36:15.541166+00:00", "meta": {"OBJECT_NAME": "UK-DMC 2", "OBJECT_ID": "2009-041C", "EPOCH": "2025-12-04T15:24:31.182912", "MEAN_MOTION": 14.75594157, "ECCENTRICITY": 0.00013091, "INCLINATION": 97.8557, "RA_OF_ASC_NODE": 113.7739, "ARG_OF_PERICENTER": 102.5584, "MEAN_ANOMALY": 257.5772, "EPHEMERIS_TYPE": 0, "CLASSIFICATION_TYPE": "U", "NORAD_CAT_ID": 35683, "ELEMENT_SET_NO": 999, "REV_AT_EPOCH": 87787, "BSTAR": 0.00029045689, "MEAN_MOTION_DOT": 1.932e-05, "MEAN_MOTION_DDOT": 0}, "tle": {"line1": "1 35683U 09041C   25338.64202758  .00001932  00000+0  29046-3 0  9992", "line2": "2 35683  97.8557 113.7739 0001309 102.5584 257.5772 14.75594157877877"}}, "geometry": {"type": "Point", "coordinates": [134.02417538912607, -68.01669609432993]}}, {"type": "Feature", "properties": {"norad_id": 40715, "name": "DMC3-FM1", "group": "dmc", "lat": 61.968123222479264, "lon": -168.28352222034155, "alt_km": 605.2246743816959, "timestamp": "2025-12-04T21:36:15.541177+00:00", "meta": {"OBJECT_NAME": "DMC3-FM1", "OBJECT_ID": "2015-032A", "EPOCH": "2025-12-04T14:51:19.145376", "MEAN_MOTION": 14.85418859, "ECCENTRICITY": 0.00052307, "INCLINATION": 97.6698, "RA_OF_ASC_NODE": 206.107, "ARG_OF_PERICENTER": 350.1888, "MEAN_ANOMALY": 9.9224, "EPHEMERIS_TYPE": 0, "CLASSIFICATION_TYPE": "U", "NORAD_CAT_ID": 40715, "ELEMENT_SET_NO": 999, "REV_AT_EPOCH": 56102, "BSTAR": 0.00018992026, "MEAN_MOTION_DOT": 1.585e-05, "MEAN_MOTION_DDOT": 0}, "tle": {"line1": "1 40715U 15032A   25338.61897159  .00001585  00000+0  18992-3 0  9995", "line2": "2 40715  97.6698 206.1070 0005230 350.1888   9.9224 14.85418859561026"}}, "geometry": {"type": "Point", "coordinates": [-168.28352222034155, 61.968123222479264]}}, {"type": "Feature", "properties": {"norad_id": 40716, "name": "DMC3-FM2", "group": "dmc", "lat": -56.644583135681465, "lon": -140.3616710430402, "alt_km": 616.7669368325915, "timestamp": "2025-12-04T21:36:15.541188+00:00", "meta": {"OBJECT_NAME": "DMC3-FM2", "OBJECT_ID": "2015-032B", "EPOCH": "2025-12-04T15:23:43.585152", "MEAN_MOTION": 14.85420312, "ECCENTRICITY": 0.00058771, "INCLINATION": 97.6755, "RA_OF_ASC_NODE": 207.5668, "ARG_OF_PERICENTER": 354.434, "MEAN_ANOMALY": 5.6809, "EPHEMERIS_TYPE": 0, "CLASSIFICATION_TYPE": "U", "NORAD_CAT_ID": 40716, "ELEMENT_SET_NO": 999, "REV_AT_EPOCH": 56102, "BSTAR": 0.00019005386, "MEAN_MOTION_DOT": 1.586e-05, "MEAN_MOTION_DDOT": 0}, "tle": {"line1": "1 40716U 15032B   25338.64147668  .00001586  00000+0  19005-3 0  9999", "line2": "2 40716  97.6755 207.5668 0005877 354.4340   5.6809 14.85420312561025"}}, "geometry": {"type": "Point", "coordinates": [-140.3616710430402, -56.644583135681465]}}, {"type": "Feature", "properties": {"norad_id": 40717, "name": "DMC3-FM3", "group": "dmc", "lat": -7.430381503918106, "lon": 28.4355297747368, "alt_km": 619.8280789704031, "timestamp": "2025-12-04T21:36:15.541198+00:00", "meta": {"OBJECT_NAME": "DMC3-FM3", "OBJECT_ID": "2015-032C", "EPOCH": "2025-12-04T14:17:47.351616", "MEAN_MOTION": 14.85412633, "ECCENTRICITY": 0.00052401, "INCLINATION": 97.681, "RA_OF_ASC_NODE": 209.1503, "ARG_OF_PERICENTER": 356.8062, "MEAN_ANOMALY": 3.3119, "EPHEMERIS_TYPE": 0, "CLASSIFICATION_TYPE": "U", "NORAD_CAT_ID": 40717, "ELEMENT_SET_NO": 999, "REV_AT_EPOCH": 56102, "BSTAR": 0.00015258511, "MEAN_MOTION_DOT": 1.263e-05, "MEAN_MOTION_DDOT": 0}, "tle": {"line1": "1 40717U 15032C   25338.59568694  .00001263  00000+0  15259-3 0  9999", "line2": "2 40717  97.6810 209.1503 0005240 356.8062   3.3119 14.85412633561021"}}, "geometry": {"type": "Point", "coordinates": [28.4355297747368, -7.430381503918106]}}]}